[
    {
        "Altitude(m)": 607897.6087277739,
        "Argument of Periapsis(deg)": 0.0,
        "Eccentricity": 0.0,
        "Inclination(deg)": 60.0,
        "Latitude(deg)": -14.292901212717526,
        "Longitude(deg)": 61.61877289231799,
        "Mean Anomaly(deg)": -16.363599999999984,
        "RAAN(deg)": 170.00000000000003,
        "Satellite Name": "Test1 769",
        "Satellite Number": 769,
        "Semi-Major Axis(m)": 6980739.136638005,
        "Time(s)": 0
    },
    {
        "Altitude(m)": 607750.8101562858,
        "Argument of Periapsis(deg)": 0.00010418945913296404,
        "Eccentricity": 0.0,
        "Inclination(deg)": 60.0,
        "Latitude(deg)": -13.758742257811193,
        "Longitude(deg)": 61.905841087080006,
        "Mean Anomaly(deg)": -15.743493854538132,
        "RAAN(deg)": 169.99957995086027,
        "Satellite Name": "Test1 769",
        "Satellite Number": 769,
        "Semi-Major Axis(m)": 6980739.136638005,
        "Time(s)": 10
    }
]